{
    "links": {
        "self": "http://www.neowsapp.com/rest/v1/neo/3730330?api_key=iIulBulltgU6a56xZRHN4H3l9WmuAYTsLGpBGhQ2"
    },
    "id": "3730330",
    "neo_reference_id": "3730330",
    "name": "(2015 TX178)",
    "designation": "2015 TX178",
    "nasa_jpl_url": "http://ssd.jpl.nasa.gov/sbdb.cgi?sstr=3730330",
    "absolute_magnitude_h": 24.0,
    "estimated_diameter": {
        "kilometers": {
            "estimated_diameter_min": 0.0421264611,
            "estimated_diameter_max": 0.0941976306
        },
        "meters": {
            "estimated_diameter_min": 42.1264610556,
            "estimated_diameter_max": 94.1976305719
        },
        "miles": {
            "estimated_diameter_min": 0.0261761612,
            "estimated_diameter_max": 0.0585316759
        },
        "feet": {
            "estimated_diameter_min": 138.2101784897,
            "estimated_diameter_max": 309.0473542854
        }
    },
    "is_potentially_hazardous_asteroid": false,
    "close_approach_data": [
        {
            "close_approach_date": "2011-11-09",
            "close_approach_date_full": "2011-Nov-09 08:36",
            "epoch_date_close_approach": 1320827760000,
            "relative_velocity": {
                "kilometers_per_second": "11.8507431204",
                "kilometers_per_hour": "42662.6752333075",
                "miles_per_hour": "26508.9272859404"
            },
            "miss_distance": {
                "astronomical": "0.3977463915",
                "lunar": "154.7233462935",
                "kilometers": "59502012.968586105",
                "miles": "36972836.405474049"
            },
            "orbiting_body": "Earth"
        },
        {
            "close_approach_date": "2015-10-23",
            "close_approach_date_full": "2015-Oct-23 07:05",
            "epoch_date_close_approach": 1445583900000,
            "relative_velocity": {
                "kilometers_per_second": "6.5700154484",
                "kilometers_per_hour": "23652.0556141526",
                "miles_per_hour": "14696.4675564716"
            },
            "miss_distance": {
                "astronomical": "0.1576363072",
                "lunar": "61.3205235008",
                "kilometers": "23582055.791785664",
                "miles": "14653209.9906396032"
            },
            "orbiting_body": "Earth"
        },
        {
            "close_approach_date": "2019-10-13",
            "close_approach_date_full": "2019-Oct-13 23:33",
            "epoch_date_close_approach": 1571009580000,
            "relative_velocity": {
                "kilometers_per_second": "8.6945301908",
                "kilometers_per_hour": "31300.3086867921",
                "miles_per_hour": "19448.7945837459"
            },
            "miss_distance": {
                "astronomical": "0.2208406659",
                "lunar": "85.9070190351",
                "kilometers": "33037293.228021633",
                "miles": "20528422.0963112154"
            },
            "orbiting_body": "Earth"
        }
    ],
    "orbital_data": {
        "orbit_id": "9",
        "orbit_determination_date": "2017-04-06 08:31:21",
        "first_observation_date": "2015-10-12",
        "last_observation_date": "2015-11-14",
        "data_arc_in_days": 33,
        "observations_used": 29,
        "orbit_uncertainty": "6",
        "minimum_orbit_intersection": ".152883",
        "jupiter_tisserand_invariant": "3.234",
        "epoch_osculation": "2459000.5",
        "eccentricity": ".5427424405805628",
        "semi_major_axis": "2.498239111151209",
        "inclination": "8.527960844104379",
        "ascending_node_longitude": "197.8865386675683",
        "orbital_period": "1442.27950317433",
        "perihelion_distance": "1.142338718811186",
        "perihelion_argument": "196.9259013782539",
        "aphelion_distance": "3.854139503491233",
        "perihelion_time": "2458776.409506230751",
        "mean_anomaly": "55.93408044652666",
        "mean_motion": ".2496048783940087",
        "equinox": "J2000",
        "orbit_class": {
            "orbit_class_type": "AMO",
            "orbit_class_description": "Near-Earth asteroid orbits similar to that of 1221 Amor",
            "orbit_class_range": "1.017 AU < q (perihelion) < 1.3 AU"
        }
    },
    "is_sentry_object": false
}